NORAD_CAT_ID,OBJECT_NAME,OBJECT_TYPE,EPOCH,MEAN_MOTION,ECCENTRICITY,INCLINATION,RA_OF_ASC_NODE,ARG_OF_PERICENTER,MEAN_ANOMALY,BSTAR,MEAN_MOTION_DOT,MEAN_MOTION_DDOT,TLE_LINE0,TLE_LINE1,TLE_LINE2,SEMIMAJOR_AXIS,PERIOD,APOGEE,PERIGEE,DECAYED
51986.0,STARLINK-3645,PAYLOAD,2024-01-14 03:27:40,15.08845148,0.0001685,53.2185,325.4134,104.0337,256.0842,0.00012928,1.77e-05,0.0,0 STARLINK-3645,1 51986U 22025AG  24014.14421827  .00001770  00000-0  12928-3 0  9990,2 51986  53.2185 325.4134 0001685 104.0337 256.0842 15.08845148103561,6917.865,95.437,540.895,538.564,0.0
51986.0,STARLINK-3645,PAYLOAD,2024-01-14 06:38:26,15.0884635,0.0001699,53.2182,324.8172,111.5577,248.5596,0.00015888,2.242e-05,0.0,0 STARLINK-3645,1 51986U 22025AG  24014.27669745  .00002242  00000-0  15888-3 0  9990,2 51986  53.2182 324.8172 0001699 111.5577 248.5596 15.08846350102496,6917.861,95.437,540.901,538.551,0.0
51986.0,STARLINK-3645,PAYLOAD,2024-01-14 20:56:55,15.08842898,0.0001579,53.218,322.1406,105.9842,254.1325,5.1955e-05,5.39e-06,0.0,0 STARLINK-3645,1 51986U 22025AG  24014.87286015  .00000539  00000-0  51955-4 0  9994,2 51986  53.2180 322.1406 0001579 105.9842 254.1325 15.08842898102580,6917.872,95.437,540.829,538.644,0.0
51986.0,STARLINK-3645,PAYLOAD,2024-01-15 01:43:03,15.08856906,0.0001914,53.2181,321.2508,123.3831,236.7345,0.00021535,3.142e-05,0.0,0 STARLINK-3645,1 51986U 22025AG  24015.07157061  .00003142  00000-0  21535-3 0  9998,2 51986  53.2181 321.2508 0001914 123.3831 236.7345 15.08856906103707,6917.829,95.436,541.018,538.37,0.0
51986.0,STARLINK-3645,PAYLOAD,2024-01-15 23:58:28,15.08836812,0.000161,53.218,317.0851,113.6036,246.5125,-3.7094e-05,-8.78e-06,0.0,0 STARLINK-3645,1 51986U 22025AG  24015.99894237 -.00000878  00000-0 -37094-4 0  9995,2 51986  53.2180 317.0851 0001610 113.6036 246.5125 15.08836812103846,6917.89,95.438,540.869,538.641,0.0
51986.0,STARLINK-3645,PAYLOAD,2024-01-16 04:44:38,15.08836334,0.0001436,53.2178,316.193,96.5786,263.537,-2.4157e-05,-6.72e-06,0.0,0 STARLINK-3645,1 51986U 22025AG  24016.19766402 -.00000672  00000-0 -24157-4 0  9998,2 51986  53.2178 316.1930 0001436  96.5786 263.5370 15.08836334102780,6917.892,95.438,540.75,538.763,0.0
51986.0,STARLINK-3645,PAYLOAD,2024-01-17 03:00:02,15.08844673,0.0001892,53.2183,312.0348,94.4993,265.6216,7.6867e-05,9.36e-06,0.0,0 STARLINK-3645,1 51986U 22025AG  24017.12502399  .00000936  00000-0  76867-4 0  9991,2 51986  53.2183 312.0348 0001892  94.4993 265.6216 15.08844673104012,6917.866,95.437,541.04,538.422,0.0
51986.0,STARLINK-3645,PAYLOAD,2024-01-18 04:26:10,15.08875372,0.0001672,53.2184,307.2756,73.5413,286.5763,0.00066067,0.00010252,0.0,0 STARLINK-3645,1 51986U 22025AG  24018.18484908  .00010252  00000-0  66067-3 0  9995,2 51986  53.2184 307.2756 0001672  73.5413 286.5763 15.08875372104179,6917.772,95.435,540.794,538.481,0.0
51986.0,STARLINK-3645,PAYLOAD,2024-01-19 01:06:13,15.08830206,0.0001954,53.2184,303.4095,60.9415,299.1773,-0.00023942,-4.096e-05,0.0,0 STARLINK-3645,1 51986U 22025AG  24019.04598433 -.00004096  00000-0 -23942-3 0  9996,2 51986  53.2184 303.4095 0001954  60.9415 299.1773 15.08830206104301,6917.91,95.438,541.127,538.424,0.0
51986.0,STARLINK-3645,PAYLOAD,2024-01-19 21:46:13,15.08835272,0.0001675,53.2194,299.5417,79.0442,281.0739,-0.00017044,-2.999e-05,0.0,0 STARLINK-3645,1 51986U 22025AG  24019.90710374 -.00002999  00000-0 -17044-3 0  9997,2 51986  53.2194 299.5417 0001675  79.0442 281.0739 15.08835272103349,6917.895,95.438,540.919,538.601,0.0
51986.0,STARLINK-3645,PAYLOAD,2024-01-20 00:57:00,15.08838347,0.000281,53.2155,298.9624,36.32,323.7983,-1.4578e-05,-5.21e-06,0.0,0 STARLINK-3645,1 51986U 22025AG  24020.03958913 -.00000521  00000-0 -14578-4 0  9995,2 51986  53.2155 298.9624 0002810  36.3200 323.7983 15.08838347104453,6917.885,95.438,541.694,537.807,0.0
51986.0,STARLINK-3645,PAYLOAD,2024-01-20 23:12:24,15.088279,0.0001739,53.2174,294.7847,111.8978,248.2199,0.000209,3.039e-05,0.0,0 STARLINK-3645,1 51986U 22025AG  24020.96695007  .00003039  00000-0  20900-3 0  9999,2 51986  53.2174 294.7847 0001739 111.8978 248.2199 15.08827900103503,6917.917,95.438,540.985,538.579,0.0
51986.0,STARLINK-3645,PAYLOAD,2024-01-21 00:47:47,15.08825837,0.0001508,53.2164,294.4888,101.3649,258.7512,0.00023328,3.425e-05,0.0,0 STARLINK-3645,1 51986U 22025AG  24021.03319291  .00003425  00000-0  23328-3 0  9992,2 51986  53.2164 294.4888 0001508 101.3649 258.7512 15.08825837104601,6917.924,95.438,540.832,538.745,0.0
51986.0,STARLINK-3645,PAYLOAD,2024-01-21 18:17:00,15.08859748,0.0001401,53.2175,291.2178,82.5377,277.5774,0.000273,4.062e-05,0.0,0 STARLINK-3645,1 51986U 22025AG  24021.76181351  .00004062  00000-0  27300-3 0  9998,2 51986  53.2175 291.2178 0001401  82.5377 277.5774 15.08859748104719,6917.82,95.436,540.654,538.716,0.0
51986.0,STARLINK-3645,PAYLOAD,2024-01-21 21:27:48,15.08822552,0.0002113,53.218,290.6279,47.5157,312.6013,-0.00029092,-4.913e-05,0.0,0 STARLINK-3645,1 51986U 22025AG  24021.89431236 -.00004913  00000-0 -29092-3 0  9999,2 51986  53.2180 290.6279 0002113  47.5157 312.6013 15.08822552103649,6917.934,95.439,541.26,538.337,0.0
51986.0,STARLINK-3645,PAYLOAD,2024-01-22 00:38:35,15.08826442,0.0001549,53.2182,290.0277,92.0176,268.0993,-0.00011228,-2.074e-05,0.0,0 STARLINK-3645,1 51986U 22025AG  24022.02679493 -.00002074  00000-0 -11228-3 0  9992,2 51986  53.2182 290.0277 0001549  92.0176 268.0993 15.08826442104757,6917.922,95.438,540.858,538.715,0.0
51986.0,STARLINK-3645,PAYLOAD,2024-01-22 22:53:58,15.08831224,0.000144,53.2161,285.8609,81.3246,278.7909,-5.7699e-05,-1.206e-05,0.0,0 STARLINK-3645,1 51986U 22025AG  24022.95415176 -.00001206  00000-0 -57699-4 0  9999,2 51986  53.2161 285.8609 0001440  81.3246 278.7909 15.08831224103808,6917.907,95.438,540.768,538.776,0.0
51986.0,STARLINK-3645,PAYLOAD,2024-01-23 00:29:21,15.08835198,0.0001562,53.217,285.5639,96.5192,263.5978,3.622e-06,-2.3e-06,0.0,0 STARLINK-3645,1 51986U 22025AG  24023.02038956 -.00000230  00000-0  36220-5 0  9998,2 51986  53.2170 285.5639 0001562  96.5192 263.5978 15.08835198104905,6917.895,95.438,540.841,538.679,0.0
51986.0,STARLINK-3645,PAYLOAD,2024-01-23 22:44:45,15.08839535,0.0001601,53.2171,281.4019,94.1701,265.9474,0.00034152,5.151e-05,0.0,0 STARLINK-3645,1 51986U 22025AG  24023.94775030  .00005151  00000-0  34152-3 0  9996,2 51986  53.2171 281.4019 0001601  94.1701 265.9474 15.08839535103957,6917.882,95.438,540.854,538.639,0.0
51986.0,STARLINK-3645,PAYLOAD,2024-01-24 22:35:33,15.08837155,0.0001481,53.2166,276.9464,94.1162,265.9999,-9.7926e-06,-4.44e-06,0.0,0 STARLINK-3645,1 51986U 22025AG  24024.94135496 -.00000444  00000-0 -97926-5 0  9995,2 51986  53.2166 276.9464 0001481  94.1162 265.9999 15.08837155104107,6917.889,95.438,540.779,538.73,0.0
51986.0,STARLINK-3645,PAYLOAD,2024-01-25 00:10:56,15.08838471,0.0001482,53.2165,276.6479,91.4321,268.6841,7.7048e-06,-1.65e-06,0.0,0 STARLINK-3645,1 51986U 22025AG  24025.00759433 -.00000165  00000-0  77048-5 0  9998,2 51986  53.2165 276.6479 0001482  91.4321 268.6841 15.08838471105207,6917.885,95.438,540.775,538.725,0.0
51986.0,STARLINK-3645,PAYLOAD,2024-01-25 17:40:11,15.08774792,0.0001919,53.2172,273.3793,91.4578,268.6634,0.00095976,0.00014992,0.0,0 STARLINK-3645,1 51986U 22025AG  24025.73624665  .00014992  00000-0  95976-3 0  9996,2 51986  53.2172 273.3793 0001919  91.4578 268.6634 15.08774792105314,6918.08,95.442,541.272,538.617,0.0
51986.0,STARLINK-3645,PAYLOAD,2024-01-25 22:26:20,15.08847268,0.0001383,53.2164,272.4899,103.4665,256.6481,9.6991e-06,-1.34e-06,0.0,0 STARLINK-3645,1 51986U 22025AG  24025.93495431 -.00000134  00000-0  96991-5 0  9999,2 51986  53.2164 272.4899 0001383 103.4665 256.6481 15.08847268104256,6917.858,95.437,540.68,538.766,0.0
51986.0,STARLINK-3645,PAYLOAD,2024-01-26 00:01:43,15.08834676,0.0001524,53.2166,272.1911,104.7501,255.366,0.00022061,3.224e-05,0.0,0 STARLINK-3645,1 51986U 22025AG  24026.00119668  .00003224  00000-0  22061-3 0  9990,2 51986  53.2166 272.1911 0001524 104.7501 255.3660 15.08834676105356,6917.897,95.438,540.816,538.707,0.0
51986.0,STARLINK-3645,PAYLOAD,2024-01-26 22:17:07,15.08843512,0.0001385,53.216,268.0296,100.1122,260.0027,0.000145,2.021e-05,0.0,0 STARLINK-3645,1 51986U 22025AG  24026.92855428  .00002021  00000-0  14500-3 0  9995,2 51986  53.2160 268.0296 0001385 100.1122 260.0027 15.08843512104408,6917.87,95.437,540.693,538.777,0.0
51986.0,STARLINK-3645,PAYLOAD,2024-01-27 18:57:07,15.08844976,0.0001453,53.2165,264.1604,91.9575,268.1584,9.0563e-05,1.154e-05,0.0,0 STARLINK-3645,1 51986U 22025AG  24027.78967483  .00001154  00000-0  90563-4 0  9995,2 51986  53.2165 264.1604 0001453  91.9575 268.1584 15.08844976105625,6917.865,95.437,540.735,538.725,0.0
51986.0,STARLINK-3645,PAYLOAD,2024-01-27 22:07:54,15.08844957,0.0001486,53.2166,263.5648,88.3105,271.8058,7.9588e-05,9.79e-06,0.0,0 STARLINK-3645,1 51986U 22025AG  24027.92215381  .00000979  00000-0  79588-4 0  9992,2 51986  53.2166 263.5648 0001486  88.3105 271.8058 15.08844957104559,6917.865,95.437,540.758,538.702,0.0
51986.0,STARLINK-3645,PAYLOAD,2024-01-28 18:47:55,15.0884007,0.0001628,53.2171,259.6984,100.9924,259.1251,3.3033e-05,2.38e-06,0.0,0 STARLINK-3645,1 51986U 22025AG  24028.78327686  .00000238  00000-0  33033-4 0  9992,2 51986  53.2171 259.6984 0001628 100.9924 259.1251 15.08840070105773,6917.88,95.438,540.871,538.619,0.0
51986.0,STARLINK-3645,PAYLOAD,2024-01-28 21:58:41,15.08839065,0.000165,53.2175,259.1039,108.322,251.7952,1.8489e-05,6e-08,0.0,0 STARLINK-3645,1 51986U 22025AG  24028.91575726  .00000006  00000-0  18489-4 0  9998,2 51986  53.2175 259.1039 0001650 108.3220 251.7952 15.08839065104709,6917.883,95.438,540.89,538.607,0.0
51986.0,STARLINK-3645,PAYLOAD,2024-01-29 15:27:55,15.08841673,0.0001603,53.2177,255.8329,108.5804,251.5362,6.7445e-05,7.86e-06,0.0,0 STARLINK-3645,1 51986U 22025AG  24029.64439380  .00000786  00000-0  67445-4 0  9995,2 51986  53.2177 255.8329 0001603 108.5804 251.5362 15.08841673104817,6917.875,95.437,540.849,538.631,0.0
